{
  "type": "FeatureCollection",
  "features": [
    {
      "type": "Feature",
      "properties": {
        "norad_id": 36036,
        "name": "SMOS",
        "group": "resource",
        "lat": -78.12528817494201,
        "lon": -39.86382138637703,
        "alt_km": 767.3888154222004,
        "timestamp": "2025-12-26T04:40:05.444910+00:00",
        "meta_object_name": "SMOS",
        "meta_object_id": "2009-059A",
        "meta_epoch": "2025-12-25T22:27:10.833984",
        "meta_mean_motion": 14.39752777,
        "meta_eccentricity": 0.000105,
        "meta_inclination": 98.4382,
        "meta_ra_of_asc_node": 184.7887,
        "meta_arg_of_pericenter": 83.6861,
        "meta_mean_anomaly": 276.4447,
        "meta_ephemeris_type": 0,
        "meta_classification_type": "U",
        "meta_norad_cat_id": 36036,
        "meta_element_set_no": 999,
        "meta_rev_at_epoch": 84852,
        "meta_bstar": 0.00013815178,
        "meta_mean_motion_dot": 3.89e-06,
        "meta_mean_motion_ddot": 0,
        "tle_line1": "1 36036U 09059A   25359.93554206  .00000389  00000+0  13815-3 0  9999",
        "tle_line2": "2 36036  98.4382 184.7887 0001050  83.6861 276.4447 14.39752777848528"
      },
      "geometry": {
        "type": "Point",
        "coordinates": [
          -39.86382138637703,
          -78.12528817494201
        ]
      }
    },
    {
      "type": "Feature",
      "properties": {
        "norad_id": 36110,
        "name": "YAOGAN-7",
        "group": "resource",
        "lat": 55.442760455674346,
        "lon": 73.72913744875348,
        "alt_km": 637.2623878188169,
        "timestamp": "2025-12-26T04:40:05.444920+00:00",
        "meta_object_name": "YAOGAN-7",
        "meta_object_id": "2009-069A",
        "meta_epoch": "2025-12-25T15:06:27.948096",
        "meta_mean_motion": 14.77750828,
        "meta_eccentricity": 0.0023473,
        "meta_inclination": 98.0293,
        "meta_ra_of_asc_node": 241.34,
        "meta_arg_of_pericenter": 237.3652,
        "meta_mean_anomaly": 122.5293,
        "meta_ephemeris_type": 0,
        "meta_classification_type": "U",
        "meta_norad_cat_id": 36110,
        "meta_element_set_no": 999,
        "meta_rev_at_epoch": 86399,
        "meta_bstar": 0.00010215,
        "meta_mean_motion_dot": 6.82e-06,
        "meta_mean_motion_ddot": 0,
        "tle_line1": "1 36110U 09069A   25359.62949014  .00000682  00000+0  10215-3 0  9991",
        "tle_line2": "2 36110  98.0293 241.3400 0023473 237.3652 122.5293 14.77750828863993"
      },
      "geometry": {
        "type": "Point",
        "coordinates": [
          73.72913744875348,
          55.442760455674346
        ]
      }
    },
    {
      "type": "Feature",
      "properties": {
        "norad_id": 36605,
        "name": "TANDEM-X",
        "group": "resource",
        "lat": -31.637251060563447,
        "lon": -179.24323554443694,
        "alt_km": 515.1504657942614,
        "timestamp": "2025-12-26T04:40:05.444931+00:00",
        "meta_object_name": "TANDEM-X",
        "meta_object_id": "2010-030A",
        "meta_epoch": "2025-12-25T13:30:40.340160",
        "meta_mean_motion": 15.19154497,
        "meta_eccentricity": 0.0001775,
        "meta_inclination": 97.4454,
        "meta_ra_of_asc_node": 4.7557,
        "meta_arg_of_pericenter": 93.2666,
        "meta_mean_anomaly": 266.8771,
        "meta_ephemeris_type": 0,
        "meta_classification_type": "U",
        "meta_norad_cat_id": 36605,
        "meta_element_set_no": 999,
        "meta_rev_at_epoch": 86028,
        "meta_bstar": 5.683e-05,
        "meta_mean_motion_dot": 1.127e-05,
        "meta_mean_motion_ddot": 0,
        "tle_line1": "1 36605U 10030A   25359.56296690  .00001127  00000+0  56830-4 0  9997",
        "tle_line2": "2 36605  97.4454   4.7557 0001775  93.2666 266.8771 15.19154497860282"
      },
      "geometry": {
        "type": "Point",
        "coordinates": [
          -179.24323554443694,
          -31.637251060563447
        ]
      }
    },
    {
      "type": "Feature",
      "properties": {
        "norad_id": 36795,
        "name": "CARTOSAT-2B",
        "group": "resource",
        "lat": 77.97931213680198,
        "lon": -91.2483236551636,
        "alt_km": 621.915060303154,
        "timestamp": "2025-12-26T04:40:05.444941+00:00",
        "meta_object_name": "CARTOSAT-2B",
        "meta_object_id": "2010-035A",
        "meta_epoch": "2025-12-25T23:21:01.342944",
        "meta_mean_motion": 14.78744775,
        "meta_eccentricity": 0.00125126,
        "meta_inclination": 97.7831,
        "meta_ra_of_asc_node": 48.5714,
        "meta_arg_of_pericenter": 37.5204,
        "meta_mean_anomaly": 322.6879,
        "meta_ephemeris_type": 0,
        "meta_classification_type": "U",
        "meta_norad_cat_id": 36795,
        "meta_element_set_no": 999,
        "meta_rev_at_epoch": 83425,
        "meta_bstar": 0.00014809411,
        "meta_mean_motion_dot": 1.038e-05,
        "meta_mean_motion_ddot": 0,
        "tle_line1": "1 36795U 10035A   25359.97293221  .00001038  00000+0  14809-3 0  9994",
        "tle_line2": "2 36795  97.7831  48.5714 0012512  37.5204 322.6879 14.78744775834251"
      },
      "geometry": {
        "type": "Point",
        "coordinates": [
          -91.2483236551636,
          77.97931213680198
        ]
      }
    },
    {
      "type": "Feature",
      "properties": {
        "norad_id": 36834,
        "name": "YAOGAN-10",
        "group": "resource",
        "lat": 73.36318897811336,
        "lon": -132.34440163188066,
        "alt_km": 606.7652086980825,
        "timestamp": "2025-12-26T04:40:05.444952+00:00",
        "meta_object_name": "YAOGAN-10",
        "meta_object_id": "2010-038A",
        "meta_epoch": "2025-12-25T23:43:43.913280",
        "meta_mean_motion": 14.84657584,
        "meta_eccentricity": 0.00013801,
        "meta_inclination": 97.9134,
        "meta_ra_of_asc_node": 19.7095,
        "meta_arg_of_pericenter": 79.0864,
        "meta_mean_anomaly": 6.251,
        "meta_ephemeris_type": 0,
        "meta_classification_type": "U",
        "meta_norad_cat_id": 36834,
        "meta_element_set_no": 999,
        "meta_rev_at_epoch": 83150,
        "meta_bstar": 0.00021691298,
        "meta_mean_motion_dot": 1.781e-05,
        "meta_mean_motion_ddot": 0,
        "tle_line1": "1 36834U 10038A   25359.98870270  .00001781  00000+0  21691-3 0  9999",
        "tle_line2": "2 36834  97.9134  19.7095 0001380  79.0864   6.2510 14.84657584831509"
      },
      "geometry": {
        "type": "Point",
        "coordinates": [
          -132.34440163188066,
          73.36318897811336
        ]
      }
    },
    {
      "type": "Feature",
      "properties": {
        "norad_id": 37216,
        "name": "COSMO-SKYMED 4",
        "group": "resource",
        "lat": -81.84487831218455,
        "lon": -73.82448652570855,
        "alt_km": 630.8369489128318,
        "timestamp": "2025-12-26T04:40:05.444962+00:00",
        "meta_object_name": "COSMO-SKYMED 4",
        "meta_object_id": "2010-060A",
        "meta_epoch": "2025-12-25T22:36:08.209152",
        "meta_mean_motion": 14.82163185,
        "meta_eccentricity": 0.00014073,
        "meta_inclination": 97.8806,
        "meta_ra_of_asc_node": 181.0662,
        "meta_arg_of_pericenter": 81.7921,
        "meta_mean_anomaly": 278.3452,
        "meta_ephemeris_type": 0,
        "meta_classification_type": "U",
        "meta_norad_cat_id": 37216,
        "meta_element_set_no": 999,
        "meta_rev_at_epoch": 81890,
        "meta_bstar": 0.00018194851,
        "meta_mean_motion_dot": 1.397e-05,
        "meta_mean_motion_ddot": 0,
        "tle_line1": "1 37216U 10060A   25359.94176168  .00001397  00000+0  18195-3 0  9998",
        "tle_line2": "2 37216  97.8806 181.0662 0001407  81.7921 278.3452 14.82163185818909"
      },
      "geometry": {
        "type": "Point",
        "coordinates": [
          -73.82448652570855,
          -81.84487831218455
        ]
      }
    },
    {
      "type": "Feature",
      "properties": {
        "norad_id": 37387,
        "name": "RESOURCESAT-2",
        "group": "resource",
        "lat": -4.889609223012341,
        "lon": -117.07325024395422,
        "alt_km": 827.6273792399852,
        "timestamp": "2025-12-26T04:40:05.444972+00:00",
        "meta_object_name": "RESOURCESAT-2",
        "meta_object_id": "2011-015A",
        "meta_epoch": "2025-12-25T21:02:41.162784",
        "meta_mean_motion": 14.21602242,
        "meta_eccentricity": 0.00057777,
        "meta_inclination": 98.7859,
        "meta_ra_of_asc_node": 63.3687,
        "meta_arg_of_pericenter": 6.506,
        "meta_mean_anomaly": 353.6191,
        "meta_ephemeris_type": 0,
        "meta_classification_type": "U",
        "meta_norad_cat_id": 37387,
        "meta_element_set_no": 999,
        "meta_rev_at_epoch": 76155,
        "meta_bstar": 7.8419274e-05,
        "meta_mean_motion_dot": 1.27e-06,
        "meta_mean_motion_ddot": 0,
        "tle_line1": "1 37387U 11015A   25359.87686531  .00000127  00000+0  78419-4 0  9996",
        "tle_line2": "2 37387  98.7859  63.3687 0005777   6.5060 353.6191 14.21602242761558"
      },
      "geometry": {
        "type": "Point",
        "coordinates": [
          -117.07325024395422,
          -4.889609223012341
        ]
      }
    }
  ]
}